OBJECT_NAME,OBJECT_ID,EPOCH,MEAN_MOTION,ECCENTRICITY,INCLINATION,RA_OF_ASC_NODE,ARG_OF_PERICENTER,MEAN_ANOMALY,EPHEMERIS_TYPE,CLASSIFICATION_TYPE,NORAD_CAT_ID,ELEMENT_SET_NO,REV_AT_EPOCH,BSTAR,MEAN_MOTION_DOT,MEAN_MOTION_DDOT
BEIJING 1,2005-043A,2024-07-08T03:57:19.161504,14.62383190,.0014474,98.2028,312.8720,345.5999,14.4788,0,U,28890,999,99696,.10253E-3,.471E-5,0
HUANJING 1A (HJ-1A),2008-041A,2024-07-08T04:33:18.850464,14.80066040,.0018806,97.6303,196.1660,305.3880,54.5576,0,U,33320,999,85346,.25006E-3,.185E-4,0
HUANJING 1B (HJ-1B),2008-041B,2024-07-08T04:33:17.501760,14.80341125,.0037939,97.6259,200.6998,349.9053,10.1393,0,U,33321,999,85348,.19441E-3,.145E-4,0
YAOGAN-4,2008-061A,2024-07-07T22:00:06.647904,14.79915273,.0014153,97.8797,121.4046,213.1791,146.8534,0,U,33446,999,84062,.27208E-3,.2005E-4,0
DEIMOS-1,2009-041A,2024-07-08T04:20:18.165120,14.73378531,.0001175,97.6806,10.9779,27.2136,332.9134,0,U,35681,999,80240,.12938E-3,.792E-5,0
UK-DMC 2,2009-041C,2024-07-07T22:00:08.005248,14.73394258,.0001491,97.7839,336.7114,85.1196,275.0183,0,U,35683,999,80206,.20323E-3,.127E-4,0
DMC3-FM1,2015-032A,2024-07-08T04:56:05.873856,14.83742269,.0004755,97.7475,68.5030,211.4833,148.6098,0,U,40715,999,48469,.11441E-3,.895E-5,0
DMC3-FM2,2015-032B,2024-07-08T00:37:32.982816,14.83748927,.0006511,97.7529,69.4121,221.1487,138.9237,0,U,40716,999,48466,.12645E-3,.995E-5,0
DMC3-FM3,2015-032C,2024-07-07T22:00:30.496896,14.83669337,.0008055,97.7578,70.5918,219.6555,140.4071,0,U,40717,999,48465,.11397E-3,.89E-5,0
